CCSDS_OMM_VERS = 2.0
CREATION_DATE  = 
ORIGINATOR     = 

OBJECT_NAME    = YAOGAN-46
OBJECT_ID      = 2025-250A
CENTER_NAME    = EARTH
REF_FRAME      = TEME
TIME_SYSTEM    = UTC
MEAN_ELEMENT_THEORY = SGP/SGP4

EPOCH          = 2025-11-23T01:44:02.775840
MEAN_MOTION    = 5.35115916
ECCENTRICITY   = .00492374
INCLINATION    = 20.0335
RA_OF_ASC_NODE = 104.8243
ARG_OF_PERICENTER = 135.6954
MEAN_ANOMALY   = 224.7061

EPHEMERIS_TYPE = 0
CLASSIFICATION_TYPE = U
NORAD_CAT_ID   = 66313
ELEMENT_SET_NO = 999
REV_AT_EPOCH   = 114
BSTAR          = 0
MEAN_MOTION_DOT = -.7E-7
MEAN_MOTION_DDOT = 0

CCSDS_OMM_VERS = 2.0
CREATION_DATE  = 
ORIGINATOR     = 

OBJECT_NAME    = SENTINEL-1D
OBJECT_ID      = 2025-251A
CENTER_NAME    = EARTH
REF_FRAME      = TEME
TIME_SYSTEM    = UTC
MEAN_ELEMENT_THEORY = SGP/SGP4

EPOCH          = 2025-12-03T11:13:23.701152
MEAN_MOTION    = 14.59910948
ECCENTRICITY   = .0002643
INCLINATION    = 98.1924
RA_OF_ASC_NODE = 342.6213
ARG_OF_PERICENTER = 153.1684
MEAN_ANOMALY   = 206.9653

EPHEMERIS_TYPE = 0
CLASSIFICATION_TYPE = U
NORAD_CAT_ID   = 66315
ELEMENT_SET_NO = 999
REV_AT_EPOCH   = 418
BSTAR          = .80504E-4
MEAN_MOTION_DOT = .339E-5
MEAN_MOTION_DDOT = 0

CCSDS_OMM_VERS = 2.0
CREATION_DATE  = 
ORIGINATOR     = 

OBJECT_NAME    = QPS-SAR-14 (YACHIHOKO-I)
OBJECT_ID      = 2025-252A
CENTER_NAME    = EARTH
REF_FRAME      = TEME
TIME_SYSTEM    = UTC
MEAN_ELEMENT_THEORY = SGP/SGP4

EPOCH          = 2025-12-03T11:11:07.713600
MEAN_MOTION    = 14.97541562
ECCENTRICITY   = .0006838
INCLINATION    = 42.0031
RA_OF_ASC_NODE = 126.2285
ARG_OF_PERICENTER = 87.0305
MEAN_ANOMALY   = 273.1302

EPHEMERIS_TYPE = 0
CLASSIFICATION_TYPE = U
NORAD_CAT_ID   = 66316
ELEMENT_SET_NO = 999
REV_AT_EPOCH   = 414
BSTAR          = .71031E-3
MEAN_MOTION_DOT = .8256E-4
MEAN_MOTION_DDOT = 0

CCSDS_OMM_VERS = 2.0
CREATION_DATE  = 
ORIGINATOR     = 

OBJECT_NAME    = STARLINK-35442
OBJECT_ID      = 2025-253A
CENTER_NAME    = EARTH
REF_FRAME      = TEME
TIME_SYSTEM    = UTC
MEAN_ELEMENT_THEORY = SGP/SGP4

EPOCH          = 2025-12-03T12:00:02.998944
MEAN_MOTION    = 15.40664245
ECCENTRICITY   = .0001055
INCLINATION    = 43.0009
RA_OF_ASC_NODE = 39.1240
ARG_OF_PERICENTER = 268.8782
MEAN_ANOMALY   = 122.5263

EPHEMERIS_TYPE = 0
CLASSIFICATION_TYPE = U
NORAD_CAT_ID   = 66319
ELEMENT_SET_NO = 999
REV_AT_EPOCH   = 554
BSTAR          = .20114E-2
MEAN_MOTION_DOT = .84554E-3
MEAN_MOTION_DDOT = 0

CCSDS_OMM_VERS = 2.0
CREATION_DATE  = 
ORIGINATOR     = 

OBJECT_NAME    = STARLINK-34616
OBJECT_ID      = 2025-253B
CENTER_NAME    = EARTH
REF_FRAME      = TEME
TIME_SYSTEM    = UTC
MEAN_ELEMENT_THEORY = SGP/SGP4

EPOCH          = 2025-12-03T11:15:28.442880
MEAN_MOTION    = 15.50616353
ECCENTRICITY   = .0003705
INCLINATION    = 42.9968
RA_OF_ASC_NODE = 38.9560
ARG_OF_PERICENTER = 219.5351
MEAN_ANOMALY   = 140.5240

EPHEMERIS_TYPE = 0
CLASSIFICATION_TYPE = U
NORAD_CAT_ID   = 66320
ELEMENT_SET_NO = 999
REV_AT_EPOCH   = 557
BSTAR          = .21204E-2
MEAN_MOTION_DOT = .126267E-2
MEAN_MOTION_DDOT = 0

CCSDS_OMM_VERS = 2.0
CREATION_DATE  = 
ORIGINATOR     = 

OBJECT_NAME    = STARLINK-34615
OBJECT_ID      = 2025-253C
CENTER_NAME    = EARTH
REF_FRAME      = TEME
TIME_SYSTEM    = UTC
MEAN_ELEMENT_THEORY = SGP/SGP4

EPOCH          = 2025-12-03T12:00:02.998944
MEAN_MOTION    = 15.56313072
ECCENTRICITY   = .0001086
INCLINATION    = 43.0003
RA_OF_ASC_NODE = 38.0016
ARG_OF_PERICENTER = 288.0579
MEAN_ANOMALY   = 202.1812

EPHEMERIS_TYPE = 0
CLASSIFICATION_TYPE = U
NORAD_CAT_ID   = 66321
ELEMENT_SET_NO = 999
REV_AT_EPOCH   = 549
BSTAR          = -.37468E-1
MEAN_MOTION_DOT = -.2370563E-1
MEAN_MOTION_DDOT = 0

CCSDS_OMM_VERS = 2.0
CREATION_DATE  = 
ORIGINATOR     = 

OBJECT_NAME    = STARLINK-35292
OBJECT_ID      = 2025-253D
CENTER_NAME    = EARTH
REF_FRAME      = TEME
TIME_SYSTEM    = UTC
MEAN_ELEMENT_THEORY = SGP/SGP4

EPOCH          = 2025-12-03T08:00:01.999872
MEAN_MOTION    = 15.40741255
ECCENTRICITY   = .0001089
INCLINATION    = 43.0008
RA_OF_ASC_NODE = 39.9907
ARG_OF_PERICENTER = 281.0636
MEAN_ANOMALY   = 302.2538

EPHEMERIS_TYPE = 0
CLASSIFICATION_TYPE = U
NORAD_CAT_ID   = 66322
ELEMENT_SET_NO = 999
REV_AT_EPOCH   = 541
BSTAR          = -.49108334E-2
MEAN_MOTION_DOT = -.200416E-2
MEAN_MOTION_DDOT = 0

CCSDS_OMM_VERS = 2.0
CREATION_DATE  = 
ORIGINATOR     = 

OBJECT_NAME    = STARLINK-35309
OBJECT_ID      = 2025-253E
CENTER_NAME    = EARTH
REF_FRAME      = TEME
TIME_SYSTEM    = UTC
MEAN_ELEMENT_THEORY = SGP/SGP4

EPOCH          = 2025-12-03T11:11:28.271616
MEAN_MOTION    = 15.50628793
ECCENTRICITY   = .0001247
INCLINATION    = 42.9992
RA_OF_ASC_NODE = 38.9354
ARG_OF_PERICENTER = 262.0900
MEAN_ANOMALY   = 97.9819

EPHEMERIS_TYPE = 0
CLASSIFICATION_TYPE = U
NORAD_CAT_ID   = 66323
ELEMENT_SET_NO = 999
REV_AT_EPOCH   = 549
BSTAR          = .18357E-2
MEAN_MOTION_DOT = .109054E-2
MEAN_MOTION_DDOT = 0

CCSDS_OMM_VERS = 2.0
CREATION_DATE  = 
ORIGINATOR     = 

OBJECT_NAME    = STARLINK-35506
OBJECT_ID      = 2025-253F
CENTER_NAME    = EARTH
REF_FRAME      = TEME
TIME_SYSTEM    = UTC
MEAN_ELEMENT_THEORY = SGP/SGP4

EPOCH          = 2025-12-02T21:18:38.393568
MEAN_MOTION    = 15.50722844
ECCENTRICITY   = .00011072
INCLINATION    = 42.9991
RA_OF_ASC_NODE = 42.3374
ARG_OF_PERICENTER = 339.0363
MEAN_ANOMALY   = 21.0451

EPHEMERIS_TYPE = 0
CLASSIFICATION_TYPE = U
NORAD_CAT_ID   = 66324
ELEMENT_SET_NO = 999
REV_AT_EPOCH   = 540
BSTAR          = .16172001E-2
MEAN_MOTION_DOT = .96197E-3
MEAN_MOTION_DDOT = 0

CCSDS_OMM_VERS = 2.0
CREATION_DATE  = 
ORIGINATOR     = 

OBJECT_NAME    = STARLINK-35504
OBJECT_ID      = 2025-253G
CENTER_NAME    = EARTH
REF_FRAME      = TEME
TIME_SYSTEM    = UTC
MEAN_ELEMENT_THEORY = SGP/SGP4

EPOCH          = 2025-12-03T12:00:02.998944
MEAN_MOTION    = 15.41791328
ECCENTRICITY   = .0001655
INCLINATION    = 43.0004
RA_OF_ASC_NODE = 38.8220
ARG_OF_PERICENTER = 297.9733
MEAN_ANOMALY   = 217.2756

EPHEMERIS_TYPE = 0
CLASSIFICATION_TYPE = U
NORAD_CAT_ID   = 66325
ELEMENT_SET_NO = 999
REV_AT_EPOCH   = 544
BSTAR          = -.38739E-1
MEAN_MOTION_DOT = -.1514849E-1
MEAN_MOTION_DDOT = 0

CCSDS_OMM_VERS = 2.0
CREATION_DATE  = 
ORIGINATOR     = 

OBJECT_NAME    = STARLINK-35479
OBJECT_ID      = 2025-253H
CENTER_NAME    = EARTH
REF_FRAME      = TEME
TIME_SYSTEM    = UTC
MEAN_ELEMENT_THEORY = SGP/SGP4

EPOCH          = 2025-12-03T11:10:58.631232
MEAN_MOTION    = 15.50603892
ECCENTRICITY   = .00016
INCLINATION    = 43.0018
RA_OF_ASC_NODE = 38.9323
ARG_OF_PERICENTER = 272.6814
MEAN_ANOMALY   = 87.3864

EPHEMERIS_TYPE = 0
CLASSIFICATION_TYPE = U
NORAD_CAT_ID   = 66326
ELEMENT_SET_NO = 999
REV_AT_EPOCH   = 549
BSTAR          = .154E-2
MEAN_MOTION_DOT = .91145E-3
MEAN_MOTION_DDOT = 0

