YAOGAN-46               
1 66313U 25250A   25327.07225435 -.00000007  00000+0  00000+0 0  9996
2 66313  20.0335 104.8243 0049237 135.6954 224.7061  5.35115916  1148
SENTINEL-1D             
1 66315U 25251A   25337.46763543  .00000339  00000+0  80504-4 0  9999
2 66315  98.1924 342.6213 0002643 153.1684 206.9653 14.59910948  4184
QPS-SAR-14 (YACHIHOKO-I)
1 66316U 25252A   25337.46606150  .00008256  00000+0  71031-3 0  9991
2 66316  42.0031 126.2285 0006838  87.0305 273.1302 14.97541562  4149
STARLINK-35442          
1 66319U 25253A   25337.50003471  .00084554  00000+0  20114-2 0  9997
2 66319  43.0009  39.1240 0001055 268.8782 122.5263 15.40664245  5546
STARLINK-34616          
1 66320U 25253B   25337.46907920  .00126267  00000+0  21204-2 0  9995
2 66320  42.9968  38.9560 0003705 219.5351 140.5240 15.50616353  5577
STARLINK-34615          
1 66321U 25253C   25337.50003471 -.02370563  00000+0 -37468-1 0  9991
2 66321  43.0003  38.0016 0001086 288.0579 202.1812 15.56313072  5499
STARLINK-35292          
1 66322U 25253D   25337.33335648 -.00200416  00000+0 -49108-2 0  9999
2 66322  43.0008  39.9907 0001089 281.0636 302.2538 15.40741255  5414
STARLINK-35309          
1 66323U 25253E   25337.46629944  .00109054  00000+0  18357-2 0  9995
2 66323  42.9992  38.9354 0001247 262.0900  97.9819 15.50628793  5499
STARLINK-35506          
1 66324U 25253F   25336.88794437  .00096197  00000+0  16172-2 0  9997
2 66324  42.9991  42.3374 0001107 339.0363  21.0451 15.50722844  5406
STARLINK-35504          
1 66325U 25253G   25337.50003471 -.01514849  00000+0 -38739-1 0  9993
2 66325  43.0004  38.8220 0001655 297.9733 217.2756 15.41791328  5449
STARLINK-35479          
1 66326U 25253H   25337.46595638  .00091145  00000+0  15400-2 0  9997
2 66326  43.0018  38.9323 0001600 272.6814  87.3864 15.50603892  5499
